OBJECT_NAME,OBJECT_ID,EPOCH,MEAN_MOTION,ECCENTRICITY,INCLINATION,RA_OF_ASC_NODE,ARG_OF_PERICENTER,MEAN_ANOMALY,EPHEMERIS_TYPE,CLASSIFICATION_TYPE,NORAD_CAT_ID,ELEMENT_SET_NO,REV_AT_EPOCH,BSTAR,MEAN_MOTION_DOT,MEAN_MOTION_DDOT
ONEWEB-0167,2021-025Y,2026-06-09T12:09:05.215104,13.13472166,.00014392,87.8946,321.7604,115.3493,244.7785,0,U,48064,999,25256,.86188794E-3,.328E-5,0
ONEWEB-0166,2021-025Z,2026-06-09T12:42:00.062496,13.13471077,.00019899,87.8959,321.7264,96.7537,263.3819,0,U,48065,999,25264,.40042419E-3,.159E-5,0
ONEWEB-0151,2021-025AA,2026-06-09T10:54:44.799552,13.13469470,.0001681,87.8948,321.7588,96.5427,263.5893,0,U,48066,999,25257,.2532032E-3,.105E-5,0
ONEWEB-0170,2021-025AB,2026-06-09T11:06:56.160864,13.13469633,.0001392,87.8949,321.7586,86.8896,273.2392,0,U,48067,999,25253,-.46838001E-3,-.158E-5,0
ONEWEB-0168,2021-025AC,2026-06-09T12:34:41.854656,13.13469696,.00018918,87.8958,321.7461,100.1133,260.0210,0,U,48068,999,25255,.75248931E-3,.288E-5,0
ONEWEB-0173,2021-025AD,2026-06-09T10:32:49.065792,13.13470042,.00017652,87.8951,321.7652,107.5978,252.5344,0,U,48069,999,25278,.10738862E-2,.405E-5,0
ONEWEB-0171,2021-025AE,2026-06-09T11:26:26.365056,13.13470832,.00017191,87.8947,321.7661,95.0788,265.0537,0,U,48070,999,25260,-.72525595E-3,-.252E-5,0
ONEWEB-0172,2021-025AF,2026-06-09T10:57:11.074752,13.13470263,.00016909,87.8954,321.7594,99.4740,260.6580,0,U,48071,999,25349,.13195924E-3,.61E-6,0
ONEWEB-0174,2021-025AG,2026-06-09T10:30:23.484384,13.13470644,.00019586,87.8952,321.7628,96.5035,263.6317,0,U,48072,999,25281,.10616786E-2,.4E-5,0
ONEWEB-0175,2021-025AH,2026-06-09T11:14:15.345888,13.13470141,.00014629,87.8959,321.7401,96.0663,264.0632,0,U,48073,999,25247,-.49623803E-3,-.168E-5,0
ONEWEB-0177,2021-025AJ,2026-06-09T11:31:18.821280,13.13471022,.00019818,87.8955,321.7570,100.1318,260.0035,0,U,48074,999,25266,-.72219267E-3,-.251E-5,0
ONEWEB-0178,2021-025AK,2026-06-09T11:58:18.734880,13.13472849,.0001616,87.8939,321.7669,101.9942,258.1368,0,U,48075,999,25271,.50259211E-3,.196E-5,0
ONEWEB-0108,2021-025AL,2026-06-09T10:59:37.641120,13.13469503,.0001946,87.8959,321.7521,88.8549,271.2803,0,U,48076,999,25263,-.61196172E-4,-.1E-6,0
ONEWEB-0169,2021-025AM,2026-06-09T11:45:56.500992,13.13470545,.00019389,87.8949,321.7546,95.9134,264.2216,0,U,48077,999,25129,-.20490239E-3,-.62E-6,0
ONEWEB-0176,2021-031A,2026-06-09T08:07:57.725184,13.14503143,.00018127,87.8957,291.2638,102.6059,257.5274,0,U,48210,999,24728,.26219287E-3,.11E-5,0
ONEWEB-0184,2021-031B,2026-06-09T09:18:44.275680,13.14502947,.00012327,87.8964,291.2543,119.3168,240.8086,0,U,48211,999,24726,-.44334189E-3,-.152E-5,0
ONEWEB-0179,2021-031C,2026-06-09T10:38:59.443584,14.25518159,.02186462,87.8984,288.8367,282.7310,74.9525,0,U,48212,999,24794,.73161102E-4,.238E-5,0
ONEWEB-0180,2021-031D,2026-06-09T09:23:18.655296,13.14503062,.00020368,87.8963,291.2503,113.5419,246.5925,0,U,48213,999,24719,-.34596604E-3,-.115E-5,0
ONEWEB-0218,2021-031E,2026-06-09T09:55:16.851936,13.14502435,.00014805,87.8965,291.2444,128.0550,232.0713,0,U,48214,999,24735,.1806211E-3,.8E-6,0
ONEWEB-0209,2021-031F,2026-06-09T09:39:16.459776,13.14505285,.00020382,87.8956,291.2644,105.4813,254.6542,0,U,48215,999,24735,-.25691132E-3,-.82E-6,0
ONEWEB-0198,2021-031G,2026-06-09T09:16:39.653184,13.14502531,.00018605,87.8949,291.2672,113.7721,246.3604,0,U,48216,999,24746,-.5090431E-3,-.176E-5,0
ONEWEB-0189,2021-031H,2026-06-09T09:34:43.910112,13.14503286,.00018649,87.8961,291.2501,110.8497,249.2832,0,U,48217,999,24720,-.28460816E-3,-.93E-6,0
ONEWEB-0196,2021-031J,2026-06-09T09:02:45.800736,13.14502860,.00019208,87.8961,291.2637,104.9777,255.1565,0,U,48218,999,24720,-.91985645E-4,-.21E-6,0
ONEWEB-0183,2021-031K,2026-06-09T08:26:13.908768,13.14503239,.00020693,87.8957,291.2670,97.9645,262.1719,0,U,48219,999,24729,.78151758E-3,.303E-5,0
ONEWEB-0185,2021-031L,2026-06-09T09:03:53.446752,13.14502293,.00022764,87.8967,291.2547,104.7649,255.3733,0,U,48220,999,24722,-.24651448E-3,-.79E-6,0
ONEWEB-0187,2021-031M,2026-06-09T10:24:46.600416,13.14502851,.00020505,87.8953,291.2600,106.0458,254.0898,0,U,48221,999,24724,.78182147E-3,.303E-5,0
ONEWEB-0192,2021-031N,2026-06-09T09:41:33.459072,13.14505035,.00018232,87.8954,291.2562,102.7432,257.3901,0,U,48222,999,24715,-.12702565E-3,-.34E-6,0
ONEWEB-0219,2021-031P,2026-06-09T09:11:51.835776,13.14537976,.00020658,87.8958,291.2518,99.6958,260.4406,0,U,48223,999,24735,-.18320794E-1,-.6778E-4,0
ONEWEB-0202,2021-031Q,2026-06-09T10:34:06.622752,13.14502719,.00015613,87.8961,291.2529,120.9120,239.2164,0,U,48224,999,24734,.56801706E-3,.223E-5,0
ONEWEB-0204,2021-031R,2026-06-09T09:33:35.546976,13.14502747,.000221,87.8960,291.2559,96.7556,263.3825,0,U,48225,999,24723,-.21078566E-3,-.65E-6,0
ONEWEB-0205,2021-031S,2026-06-09T08:58:10.832736,13.14505076,.0002001,87.8969,291.2533,107.5011,252.6338,0,U,48226,999,24724,-.17818956E-3,-.53E-6,0
ONEWEB-0206,2021-031T,2026-06-09T08:19:22.757088,13.14503605,.00018012,87.8964,291.2608,94.6668,265.4667,0,U,48227,999,24719,.54849167E-3,.216E-5,0
ONEWEB-0182,2021-031U,2026-06-09T08:12:31.505184,13.14502453,.00020897,87.8958,291.2697,96.8187,263.3180,0,U,48228,999,24740,.51172836E-3,.203E-5,0
ONEWEB-0186,2021-031V,2026-06-09T08:28:30.424224,13.14502347,.00019497,87.8968,291.2573,103.0210,257.1138,0,U,48229,999,24735,.93503012E-3,.359E-5,0
ONEWEB-0181,2021-031W,2026-06-09T07:56:32.618976,13.14503391,.00019076,87.8948,291.2926,106.6100,253.5240,0,U,48230,999,24720,.26860618E-4,.23E-6,0
ONEWEB-0188,2021-031X,2026-06-09T08:51:20.798208,13.14503823,.00019246,87.8952,291.2839,100.8288,259.3058,0,U,48231,999,24711,.37483175E-3,.152E-5,0
ONEWEB-0220,2021-031Y,2026-06-09T07:58:48.120096,13.14501857,.00021403,87.8964,291.2631,106.6225,253.5140,0,U,48232,999,24737,.9502173E-5,.16E-6,0
ONEWEB-0165,2021-031Z,2026-06-09T08:39:54.752832,13.14501254,.00017882,87.8960,291.2709,112.4827,247.6492,0,U,48233,999,24733,.62173538E-3,.243E-5,0
ONEWEB-0199,2021-031AA,2026-06-09T08:17:05.651520,13.14502990,.00018653,87.8964,291.2593,94.9204,265.2138,0,U,48234,999,24723,.73152179E-3,.284E-5,0
ONEWEB-0203,2021-031AB,2026-06-09T09:53:00.109248,13.14502536,.00017224,87.8963,291.2498,100.3504,259.7820,0,U,48235,999,24725,.31461642E-3,.129E-5,0
ONEWEB-0197,2021-031AC,2026-06-09T09:16:15.919968,13.14503680,.0002159,87.8957,291.2414,99.4907,260.6467,0,U,48236,999,24716,-.63186409E-3,-.221E-5,0
ONEWEB-0194,2021-031AD,2026-06-09T10:36:23.223744,13.14501560,.00016944,87.8961,291.2521,95.0883,265.0440,0,U,48237,999,24734,.37865632E-3,.153E-5,0
ONEWEB-0193,2021-031AE,2026-06-09T09:09:36.385632,13.14502543,.00015949,87.8960,291.2546,88.5557,271.5755,0,U,48238,999,24728,-.47332994E-3,-.163E-5,0
ONEWEB-0191,2021-031AF,2026-06-09T09:25:35.880960,13.14502879,.00020724,87.8966,291.2507,97.1768,262.9598,0,U,48239,999,24714,-.30457517E-3,-.1E-5,0
ONEWEB-0195,2021-031AG,2026-06-09T08:52:28.027776,13.14501517,.00018615,87.8967,291.2559,112.1429,247.9898,0,U,48240,999,24712,.16306211E-3,.73E-6,0
ONEWEB-0201,2021-031AH,2026-06-09T10:25:09.696864,13.14504237,.00021877,87.8958,291.2598,100.4123,259.7253,0,U,48241,999,24736,.64913889E-3,.253E-5,0
ONEWEB-0207,2021-031AJ,2026-06-09T08:06:48.878208,13.14502915,.00021723,87.8963,291.2632,101.2098,258.9276,0,U,48242,999,24726,.39014385E-3,.157E-5,0
ONEWEB-0208,2021-031AK,2026-06-09T09:30:09.978048,13.14503706,.00018071,87.8960,291.2586,110.7413,249.3910,0,U,48243,999,24728,-.21584608E-3,-.67E-6,0
ONEWEB-0200,2021-031AL,2026-06-09T10:27:14.856768,13.14502502,.00019309,87.8964,291.2367,103.3218,256.8127,0,U,48244,999,24721,.66828498E-3,.261E-5,0
ONEWEB-0217,2021-031AM,2026-06-09T09:00:28.598400,13.14502297,.00018534,87.8966,291.2533,111.2136,248.9192,0,U,48245,999,24715,.30437282E-4,.24E-6,0
ONEWEB-0211,2021-045A,2026-06-09T12:18:37.025856,13.16196649,.00016427,87.9005,260.6118,121.1644,238.9648,0,U,48767,999,24343,.23142166E-3,.101E-5,0
ONEWEB-0223,2021-045B,2026-06-09T12:16:30.881856,13.15544921,.00015699,87.9010,260.7186,107.7033,252.4269,0,U,48768,999,24339,.33869104E-3,.14E-5,0
ONEWEB-0230,2021-045C,2026-06-09T13:24:58.744800,13.15548080,.00020365,87.8998,260.7236,96.6467,263.4895,0,U,48769,999,24366,.13437822E-3,.63E-6,0
ONEWEB-0237,2021-045D,2026-06-09T13:08:58.852896,13.15548202,.00016729,87.8997,260.7275,100.6113,259.5206,0,U,48770,999,24338,-.89003451E-3,-.322E-5,0
ONEWEB-0235,2021-045E,2026-06-09T12:32:30.053184,13.15548632,.00015428,87.9011,260.7175,104.0773,256.0529,0,U,48771,999,24337,-.14087892E-3,-.4E-6,0
ONEWEB-0242,2021-045F,2026-06-09T12:23:21.164352,13.15557879,.0001841,87.9013,260.7151,98.0139,262.1201,0,U,48772,999,24341,.23630872E-2,.903E-5,0
ONEWEB-0241,2021-045G,2026-06-09T13:54:39.142944,13.15548801,.00017087,87.8997,260.7220,112.4796,247.6515,0,U,48773,999,24333,.49858849E-3,.201E-5,0
ONEWEB-0243,2021-045H,2026-06-09T12:50:45.016800,13.15548576,.00015599,87.9001,260.7432,88.8765,271.2544,0,U,48774,999,24335,-.13711412E-3,-.39E-6,0
ONEWEB-0222,2021-045J,2026-06-09T12:26:47.513472,13.15548839,.00017548,87.9011,260.7132,105.2176,254.9148,0,U,48775,999,24339,.49597377E-4,.31E-6,0
ONEWEB-0244,2021-045K,2026-06-09T13:04:26.525280,13.15548338,.00018204,87.9014,260.7024,100.2984,259.8352,0,U,48776,999,24396,-.15309212E-3,-.45E-6,0
ONEWEB-0247,2021-045L,2026-06-09T12:59:51.684288,13.15547357,.00011592,87.8999,260.7364,91.9771,268.1492,0,U,48777,999,24340,-.24567295E-3,-.8E-6,0
ONEWEB-0245,2021-045M,2026-06-09T12:53:01.087296,13.15547679,.00018566,87.9011,260.7158,105.7310,254.4025,0,U,48778,999,24337,-.33805177E-3,-.114E-5,0
ONEWEB-0229,2021-045N,2026-06-09T12:46:11.169408,13.15548600,.0001839,87.9009,260.7146,97.4500,262.6839,0,U,48779,999,24340,-.25685599E-3,-.84E-6,0
ONEWEB-0228,2021-045P,2026-06-09T13:34:16.539744,13.15550644,.00018543,87.9014,260.7001,101.6596,258.4742,0,U,48780,999,24332,.34992401E-3,.145E-5,0
ONEWEB-0232,2021-045Q,2026-06-09T12:57:35.147232,13.15550018,.00019638,87.9012,260.7065,103.2363,256.8986,0,U,48781,999,24364,-.18636394E-3,-.57E-6,0
